[{"OBJECT_NAME":"KENT RIDGE 1","OBJECT_ID":"2015-077B","EPOCH":"2026-03-05T08:17:43.480032","MEAN_MOTION":15.22409641,"ECCENTRICITY":0.0008441,"INCLINATION":14.9804,"RA_OF_ASC_NODE":317.8568,"ARG_OF_PERICENTER":215.4725,"MEAN_ANOMALY":144.5035,"EPHEMERIS_TYPE":0,"CLASSIFICATION_TYPE":"U","NORAD_CAT_ID":41167,"ELEMENT_SET_NO":999,"REV_AT_EPOCH":56524,"BSTAR":0.00021929,"MEAN_MOTION_DOT":5.99e-5,"MEAN_MOTION_DDOT":0},{"OBJECT_NAME":"GAOFEN-4","OBJECT_ID":"2015-083A","EPOCH":"2026-03-05T20:16:52.814208","MEAN_MOTION":1.00269602,"ECCENTRICITY":0.0003644,"INCLINATION":0.3853,"RA_OF_ASC_NODE":83.3778,"ARG_OF_PERICENTER":101.6957,"MEAN_ANOMALY":28.4148,"EPHEMERIS_TYPE":0,"CLASSIFICATION_TYPE":"U","NORAD_CAT_ID":41194,"ELEMENT_SET_NO":999,"REV_AT_EPOCH":3749,"BSTAR":0,"MEAN_MOTION_DOT":-3.41e-6,"MEAN_MOTION_DDOT":0},{"OBJECT_NAME":"JASON-3","OBJECT_ID":"2016-002A","EPOCH":"2026-03-05T18:42:14.115456","MEAN_MOTION":12.87628289,"ECCENTRICITY":0.0007813,"INCLINATION":66.0448,"RA_OF_ASC_NODE":343.2417,"ARG_OF_PERICENTER":276.8478,"MEAN_ANOMALY":83.1651,"EPHEMERIS_TYPE":0,"CLASSIFICATION_TYPE":"U","NORAD_CAT_ID":41240,"ELEMENT_SET_NO":999,"REV_AT_EPOCH":47393,"BSTAR":0.00016787,"MEAN_MOTION_DOT":-2.0e-7,"MEAN_MOTION_DDOT":0},{"OBJECT_NAME":"SENTINEL-3A","OBJECT_ID":"2016-011A","EPOCH":"2026-03-05T18:35:55.145184","MEAN_MOTION":14.26740164,"ECCENTRICITY":0.0001239,"INCLINATION":98.6236,"RA_OF_ASC_NODE":133.6186,"ARG_OF_PERICENTER":100.2623,"MEAN_ANOMALY":259.8697,"EPHEMERIS_TYPE":0,"CLASSIFICATION_TYPE":"U","NORAD_CAT_ID":41335,"ELEMENT_SET_NO":999,"REV_AT_EPOCH":52331,"BSTAR":9.1449e-5,"MEAN_MOTION_DOT":1.78e-6,"MEAN_MOTION_DDOT":0},{"OBJECT_NAME":"ZIYUAN 3-02 (ZY 3-02)","OBJECT_ID":"2016-033A","EPOCH":"2026-03-05T19:03:39.497760","MEAN_MOTION":15.21486369,"ECCENTRICITY":0.0011182,"INCLINATION":97.3907,"RA_OF_ASC_NODE":142.5196,"ARG_OF_PERICENTER":314.3422,"MEAN_ANOMALY":45.6897,"EPHEMERIS_TYPE":0,"CLASSIFICATION_TYPE":"U","NORAD_CAT_ID":41556,"ELEMENT_SET_NO":999,"REV_AT_EPOCH":54226,"BSTAR":0.00036557,"MEAN_MOTION_DOT":8.169e-5,"MEAN_MOTION_DDOT":0},{"OBJECT_NAME":"CARTOSAT-2C","OBJECT_ID":"2016-040A","EPOCH":"2026-03-05T17:16:09.938208","MEAN_MOTION":15.19176431,"ECCENTRICITY":0.0010089,"INCLINATION":97.461,"RA_OF_ASC_NODE":126.0523,"ARG_OF_PERICENTER":132.8401,"MEAN_ANOMALY":227.3682,"EPHEMERIS_TYPE":0,"CLASSIFICATION_TYPE":"U","NORAD_CAT_ID":41599,"ELEMENT_SET_NO":999,"REV_AT_EPOCH":53800,"BSTAR":0.00028641,"MEAN_MOTION_DOT":5.964e-5,"MEAN_MOTION_DDOT":0},{"OBJECT_NAME":"SKYSAT-C1","OBJECT_ID":"2016-040C","EPOCH":"2026-03-05T15:47:07.363104","MEAN_MOTION":15.34412247,"ECCENTRICITY":0.0003831,"INCLINATION":96.9703,"RA_OF_ASC_NODE":102.0473,"ARG_OF_PERICENTER":61.7119,"MEAN_ANOMALY":298.4512,"EPHEMERIS_TYPE":0,"CLASSIFICATION_TYPE":"U","NORAD_CAT_ID":41601,"ELEMENT_SET_NO":999,"REV_AT_EPOCH":54198,"BSTAR":0.00035129,"MEAN_MOTION_DOT":0.00011641,"MEAN_MOTION_DDOT":0},{"OBJECT_NAME":"LAPAN-A3","OBJECT_ID":"2016-040E","EPOCH":"2026-03-05T18:43:49.412064","MEAN_MOTION":15.32338628,"ECCENTRICITY":0.0011496,"INCLINATION":97.1479,"RA_OF_ASC_NODE":64.3891,"ARG_OF_PERICENTER":35.7083,"MEAN_ANOMALY":324.4926,"EPHEMERIS_TYPE":0,"CLASSIFICATION_TYPE":"U","NORAD_CAT_ID":41603,"ELEMENT_SET_NO":999,"REV_AT_EPOCH":53897,"BSTAR":0.00019857,"MEAN_MOTION_DOT":6.137e-5,"MEAN_MOTION_DDOT":0},{"OBJECT_NAME":"GAOFEN-3","OBJECT_ID":"2016-049A","EPOCH":"2026-03-05T18:43:39.857952","MEAN_MOTION":14.42214561,"ECCENTRICITY":0.0001643,"INCLINATION":98.4047,"RA_OF_ASC_NODE":74.111,"ARG_OF_PERICENTER":94.1203,"MEAN_ANOMALY":266.0174,"EPHEMERIS_TYPE":0,"CLASSIFICATION_TYPE":"U","NORAD_CAT_ID":41727,"ELEMENT_SET_NO":999,"REV_AT_EPOCH":50374,"BSTAR":-5.508e-6,"MEAN_MOTION_DOT":-6.2e-7,"MEAN_MOTION_DDOT":0},{"OBJECT_NAME":"SKYSAT-C4","OBJECT_ID":"2016-058B","EPOCH":"2026-03-05T15:22:24.695040","MEAN_MOTION":15.45204839,"ECCENTRICITY":8.36e-5,"INCLINATION":96.9291,"RA_OF_ASC_NODE":90.9279,"ARG_OF_PERICENTER":96.3016,"MEAN_ANOMALY":263.8329,"EPHEMERIS_TYPE":0,"CLASSIFICATION_TYPE":"U","NORAD_CAT_ID":41771,"ELEMENT_SET_NO":999,"REV_AT_EPOCH":52946,"BSTAR":0.00041663,"MEAN_MOTION_DOT":0.0001972,"MEAN_MOTION_DDOT":0},{"OBJECT_NAME":"SKYSAT-C5","OBJECT_ID":"2016-058C","EPOCH":"2026-03-05T15:38:01.762656","MEAN_MOTION":15.3419731,"ECCENTRICITY":0.000183,"INCLINATION":97.0617,"RA_OF_ASC_NODE":109.8902,"ARG_OF_PERICENTER":85.2805,"MEAN_ANOMALY":274.8648,"EPHEMERIS_TYPE":0,"CLASSIFICATION_TYPE":"U","NORAD_CAT_ID":41772,"ELEMENT_SET_NO":999,"REV_AT_EPOCH":52787,"BSTAR":0.00032346,"MEAN_MOTION_DOT":0.00010636,"MEAN_MOTION_DDOT":0},{"OBJECT_NAME":"SKYSAT-C2","OBJECT_ID":"2016-058D","EPOCH":"2026-03-05T14:43:47.673408","MEAN_MOTION":15.39570727,"ECCENTRICITY":0.0005201,"INCLINATION":97.0281,"RA_OF_ASC_NODE":90.7259,"ARG_OF_PERICENTER":77.1146,"MEAN_ANOMALY":283.0682,"EPHEMERIS_TYPE":0,"CLASSIFICATION_TYPE":"U","NORAD_CAT_ID":41773,"ELEMENT_SET_NO":999,"REV_AT_EPOCH":52910,"BSTAR":0.0003964,"MEAN_MOTION_DOT":0.00015535,"MEAN_MOTION_DDOT":0},{"OBJECT_NAME":"SKYSAT-C3","OBJECT_ID":"2016-058E","EPOCH":"2026-03-05T14:46:15.056256","MEAN_MOTION":15.48103267,"ECCENTRICITY":0.0001601,"INCLINATION":96.918,"RA_OF_ASC_NODE":99.6597,"ARG_OF_PERICENTER":105.1101,"MEAN_ANOMALY":255.0328,"EPHEMERIS_TYPE":0,"CLASSIFICATION_TYPE":"U","NORAD_CAT_ID":41774,"ELEMENT_SET_NO":999,"REV_AT_EPOCH":53006,"BSTAR":0.00046828,"MEAN_MOTION_DOT":0.00024516,"MEAN_MOTION_DDOT":0},{"OBJECT_NAME":"ALSAT-1B","OBJECT_ID":"2016-059C","EPOCH":"2026-03-05T19:07:44.400288","MEAN_MOTION":14.72182522,"ECCENTRICITY":0.0008799,"INCLINATION":97.7798,"RA_OF_ASC_NODE":78.0084,"ARG_OF_PERICENTER":190.131,"MEAN_ANOMALY":169.9722,"EPHEMERIS_TYPE":0,"CLASSIFICATION_TYPE":"U","NORAD_CAT_ID":41785,"ELEMENT_SET_NO":999,"REV_AT_EPOCH":50536,"BSTAR":0.00010588,"MEAN_MOTION_DOT":6.2e-6,"MEAN_MOTION_DDOT":0},{"OBJECT_NAME":"PATHFINDER 1","OBJECT_ID":"2016-059E","EPOCH":"2026-03-05T12:04:32.047680","MEAN_MOTION":14.6750973,"ECCENTRICITY":0.0028581,"INCLINATION":97.8175,"RA_OF_ASC_NODE":68.4672,"ARG_OF_PERICENTER":174.0118,"MEAN_ANOMALY":186.1435,"EPHEMERIS_TYPE":0,"CLASSIFICATION_TYPE":"U","NORAD_CAT_ID":41787,"ELEMENT_SET_NO":999,"REV_AT_EPOCH":50450,"BSTAR":0.00020276,"MEAN_MOTION_DOT":1.109e-5,"MEAN_MOTION_DDOT":0},{"OBJECT_NAME":"SCATSAT 1","OBJECT_ID":"2016-059H","EPOCH":"2026-03-05T17:32:00.965472","MEAN_MOTION":14.79248681,"ECCENTRICITY":0.0054141,"INCLINATION":98.1313,"RA_OF_ASC_NODE":127.3965,"ARG_OF_PERICENTER":220.4127,"MEAN_ANOMALY":139.3056,"EPHEMERIS_TYPE":0,"CLASSIFICATION_TYPE":"U","NORAD_CAT_ID":41790,"ELEMENT_SET_NO":999,"REV_AT_EPOCH":8629,"BSTAR":0.00028105,"MEAN_MOTION_DOT":2.083e-5,"MEAN_MOTION_DDOT":0},{"OBJECT_NAME":"GOKTURK 1A","OBJECT_ID":"2016-073A","EPOCH":"2026-03-05T18:00:52.462080","MEAN_MOTION":14.62744603,"ECCENTRICITY":0.0001356,"INCLINATION":98.1375,"RA_OF_ASC_NODE":320.9821,"ARG_OF_PERICENTER":78.1217,"MEAN_ANOMALY":282.0137,"EPHEMERIS_TYPE":0,"CLASSIFICATION_TYPE":"U","NORAD_CAT_ID":41875,"ELEMENT_SET_NO":999,"REV_AT_EPOCH":49370,"BSTAR":0.00013675,"MEAN_MOTION_DOT":6.5e-6,"MEAN_MOTION_DDOT":0}]
