KENT RIDGE 1            
1 41167U 15077B   26064.34564213  .00005990  00000+0  21929-3 0  9993
2 41167  14.9804 317.8568 0008441 215.4725 144.5035 15.22409641565246
GAOFEN-4                
1 41194U 15083A   26064.84505572 -.00000341  00000+0  00000+0 0  9997
2 41194   0.3853  83.3778 0003644 101.6957  28.4148  1.00269602 37498
JASON-3                 
1 41240U 16002A   26064.77933004 -.00000020  00000+0  16787-3 0  9995
2 41240  66.0448 343.2417 0007813 276.8478  83.1651 12.87628289473939
SENTINEL-3A             
1 41335U 16011A   26064.77494381  .00000178  00000+0  91449-4 0  9992
2 41335  98.6236 133.6186 0001239 100.2623 259.8697 14.26740164523314
ZIYUAN 3-02 (ZY 3-02)   
1 41556U 16033A   26064.79420715  .00008169  00000+0  36557-3 0  9999
2 41556  97.3907 142.5196 0011182 314.3422  45.6897 15.21486369542261
CARTOSAT-2C             
1 41599U 16040A   26064.71955947  .00005964  00000+0  28641-3 0  9991
2 41599  97.4610 126.0523 0010089 132.8401 227.3682 15.19176431538007
SKYSAT-C1               
1 41601U 16040C   26064.65772411  .00011641  00000+0  35129-3 0  9999
2 41601  96.9703 102.0473 0003831  61.7119 298.4512 15.34412247541986
LAPAN-A3                
1 41603U 16040E   26064.78043301  .00006137  00000+0  19857-3 0  9998
2 41603  97.1479  64.3891 0011496  35.7083 324.4926 15.32338628538974
GAOFEN-3                
1 41727U 16049A   26064.78032243 -.00000062  00000+0 -55080-5 0  9990
2 41727  98.4047  74.1110 0001643  94.1203 266.0174 14.42214561503747
SKYSAT-C4               
1 41771U 16058B   26064.64056360  .00019720  00000+0  41663-3 0  9999
2 41771  96.9291  90.9279 0000836  96.3016 263.8329 15.45204839529466
SKYSAT-C5               
1 41772U 16058C   26064.65140929  .00010636  00000+0  32346-3 0  9991
2 41772  97.0617 109.8902 0001830  85.2805 274.8648 15.34197310527874
SKYSAT-C2               
1 41773U 16058D   26064.61374622  .00015535  00000+0  39640-3 0  9994
2 41773  97.0281  90.7259 0005201  77.1146 283.0682 15.39570727529109
SKYSAT-C3               
1 41774U 16058E   26064.61545204  .00024516  00000+0  46828-3 0  9996
2 41774  96.9180  99.6597 0001601 105.1101 255.0328 15.48103267530066
ALSAT-1B                
1 41785U 16059C   26064.79704167  .00000620  00000+0  10588-3 0  9997
2 41785  97.7798  78.0084 0008799 190.1310 169.9722 14.72182522505368
PATHFINDER 1            
1 41787U 16059E   26064.50314870  .00001109  00000+0  20276-3 0  9994
2 41787  97.8175  68.4672 0028581 174.0118 186.1435 14.67509730504509
SCATSAT 1               
1 41790U 16059H   26064.73056673  .00002083  00000+0  28105-3 0  9998
2 41790  98.1313 127.3965 0054141 220.4127 139.3056 14.79248681 86296
GOKTURK 1A              
1 41875U 16073A   26064.75060720  .00000650  00000+0  13675-3 0  9992
2 41875  98.1375 320.9821 0001356  78.1217 282.0137 14.62744603493709
